CCSDS_OMM_VERS = 2.0
CREATION_DATE  = 
ORIGINATOR     = 

OBJECT_NAME    = SL-4 R/B
OBJECT_ID      = 2014-021B
CENTER_NAME    = EARTH
REF_FRAME      = TEME
TIME_SYSTEM    = UTC
MEAN_ELEMENT_THEORY = SGP/SGP4

EPOCH          = 2025-12-05T06:23:43.009728
MEAN_MOTION    = 15.36395447
ECCENTRICITY   = .0102389
INCLINATION    = 51.6089
RA_OF_ASC_NODE = 76.9058
ARG_OF_PERICENTER = 119.2625
MEAN_ANOMALY   = 241.8640

EPHEMERIS_TYPE = 0
CLASSIFICATION_TYPE = U
NORAD_CAT_ID   = 39679
ELEMENT_SET_NO = 999
REV_AT_EPOCH   = 64174
BSTAR          = .51979863E-3
MEAN_MOTION_DOT = .21979E-3
MEAN_MOTION_DDOT = 0

CCSDS_OMM_VERS = 2.0
CREATION_DATE  = 
ORIGINATOR     = 

OBJECT_NAME    = ALOS-2
OBJECT_ID      = 2014-029A
CENTER_NAME    = EARTH
REF_FRAME      = TEME
TIME_SYSTEM    = UTC
MEAN_ELEMENT_THEORY = SGP/SGP4

EPOCH          = 2025-12-05T07:16:51.545568
MEAN_MOTION    = 14.79456881
ECCENTRICITY   = .00014854
INCLINATION    = 97.9238
RA_OF_ASC_NODE = 74.2558
ARG_OF_PERICENTER = 106.6429
MEAN_ANOMALY   = 253.4946

EPHEMERIS_TYPE = 0
CLASSIFICATION_TYPE = U
NORAD_CAT_ID   = 39766
ELEMENT_SET_NO = 999
REV_AT_EPOCH   = 62291
BSTAR          = .48657938E-3
MEAN_MOTION_DOT = .3583E-4
MEAN_MOTION_DDOT = 0

CCSDS_OMM_VERS = 2.0
CREATION_DATE  = 
ORIGINATOR     = 

OBJECT_NAME    = YAOGAN-29
OBJECT_ID      = 2015-069A
CENTER_NAME    = EARTH
REF_FRAME      = TEME
TIME_SYSTEM    = UTC
MEAN_ELEMENT_THEORY = SGP/SGP4

EPOCH          = 2025-12-05T07:54:37.922976
MEAN_MOTION    = 14.82870076
ECCENTRICITY   = .00006147
INCLINATION    = 98.0226
RA_OF_ASC_NODE = 2.4773
ARG_OF_PERICENTER = 0.4437
MEAN_ANOMALY   = 359.6777

EPHEMERIS_TYPE = 0
CLASSIFICATION_TYPE = U
NORAD_CAT_ID   = 41038
ELEMENT_SET_NO = 999
REV_AT_EPOCH   = 54189
BSTAR          = .12497488E-3
MEAN_MOTION_DOT = .958E-5
MEAN_MOTION_DDOT = 0

CCSDS_OMM_VERS = 2.0
CREATION_DATE  = 
ORIGINATOR     = 

OBJECT_NAME    = ASTRO-H (HITOMI)
OBJECT_ID      = 2016-012A
CENTER_NAME    = EARTH
REF_FRAME      = TEME
TIME_SYSTEM    = UTC
MEAN_ELEMENT_THEORY = SGP/SGP4

EPOCH          = 2025-12-04T02:13:45.434208
MEAN_MOTION    = 15.09266666
ECCENTRICITY   = .00094613
INCLINATION    = 30.9999
RA_OF_ASC_NODE = 253.1139
ARG_OF_PERICENTER = 91.0212
MEAN_ANOMALY   = 269.1510

EPHEMERIS_TYPE = 0
CLASSIFICATION_TYPE = U
NORAD_CAT_ID   = 41337
ELEMENT_SET_NO = 999
REV_AT_EPOCH   = 53777
BSTAR          = .3818886E-3
MEAN_MOTION_DOT = .6332E-4
MEAN_MOTION_DDOT = 0

CCSDS_OMM_VERS = 2.0
CREATION_DATE  = 
ORIGINATOR     = 

OBJECT_NAME    = HXMT (HUIYAN)
OBJECT_ID      = 2017-034A
CENTER_NAME    = EARTH
REF_FRAME      = TEME
TIME_SYSTEM    = UTC
MEAN_ELEMENT_THEORY = SGP/SGP4

EPOCH          = 2025-12-05T06:44:13.516800
MEAN_MOTION    = 15.16157179
ECCENTRICITY   = .00325954
INCLINATION    = 43.0117
RA_OF_ASC_NODE = 181.0185
ARG_OF_PERICENTER = 355.6181
MEAN_ANOMALY   = 4.4377

EPHEMERIS_TYPE = 0
CLASSIFICATION_TYPE = U
NORAD_CAT_ID   = 42758
ELEMENT_SET_NO = 999
REV_AT_EPOCH   = 46820
BSTAR          = .38959382E-3
MEAN_MOTION_DOT = .7522E-4
MEAN_MOTION_DDOT = 0

CCSDS_OMM_VERS = 2.0
CREATION_DATE  = 
ORIGINATOR     = 

OBJECT_NAME    = CZ-2C R/B
OBJECT_ID      = 2018-054D
CENTER_NAME    = EARTH
REF_FRAME      = TEME
TIME_SYSTEM    = UTC
MEAN_ELEMENT_THEORY = SGP/SGP4

EPOCH          = 2025-12-04T02:29:02.911488
MEAN_MOTION    = 15.71910345
ECCENTRICITY   = .00171646
INCLINATION    = 35.1338
RA_OF_ASC_NODE = 239.3732
ARG_OF_PERICENTER = 52.5099
MEAN_ANOMALY   = 307.7191

EPHEMERIS_TYPE = 0
CLASSIFICATION_TYPE = U
NORAD_CAT_ID   = 43521
ELEMENT_SET_NO = 999
REV_AT_EPOCH   = 41369
BSTAR          = .10935966E-2
MEAN_MOTION_DOT = .151724E-2
MEAN_MOTION_DDOT = 0

CCSDS_OMM_VERS = 2.0
CREATION_DATE  = 
ORIGINATOR     = 

OBJECT_NAME    = SAOCOM 1A
OBJECT_ID      = 2018-076A
CENTER_NAME    = EARTH
REF_FRAME      = TEME
TIME_SYSTEM    = UTC
MEAN_ELEMENT_THEORY = SGP/SGP4

EPOCH          = 2025-12-05T05:53:51.168768
MEAN_MOTION    = 14.82165051
ECCENTRICITY   = .00015556
INCLINATION    = 97.8846
RA_OF_ASC_NODE = 163.7772
ARG_OF_PERICENTER = 85.5074
MEAN_ANOMALY   = 274.6317

EPHEMERIS_TYPE = 0
CLASSIFICATION_TYPE = U
NORAD_CAT_ID   = 43641
ELEMENT_SET_NO = 999
REV_AT_EPOCH   = 38737
BSTAR          = .12696337E-3
MEAN_MOTION_DOT = .959E-5
MEAN_MOTION_DDOT = 0

CCSDS_OMM_VERS = 2.0
CREATION_DATE  = 
ORIGINATOR     = 

OBJECT_NAME    = H-2A R/B
OBJECT_ID      = 2018-084L
CENTER_NAME    = EARTH
REF_FRAME      = TEME
TIME_SYSTEM    = UTC
MEAN_ELEMENT_THEORY = SGP/SGP4

EPOCH          = 2025-12-05T06:31:10.981632
MEAN_MOTION    = 15.36976001
ECCENTRICITY   = .00279841
INCLINATION    = 98.8774
RA_OF_ASC_NODE = 171.8048
ARG_OF_PERICENTER = 352.2092
MEAN_ANOMALY   = 7.8709

EPHEMERIS_TYPE = 0
CLASSIFICATION_TYPE = U
NORAD_CAT_ID   = 43682
ELEMENT_SET_NO = 999
REV_AT_EPOCH   = 39125
BSTAR          = .81957382E-3
MEAN_MOTION_DOT = .30009E-3
MEAN_MOTION_DDOT = 0

CCSDS_OMM_VERS = 2.0
CREATION_DATE  = 
ORIGINATOR     = 

OBJECT_NAME    = SAOCOM 1B
OBJECT_ID      = 2020-059A
CENTER_NAME    = EARTH
REF_FRAME      = TEME
TIME_SYSTEM    = UTC
MEAN_ELEMENT_THEORY = SGP/SGP4

EPOCH          = 2025-12-05T06:38:51.388224
MEAN_MOTION    = 14.82147287
ECCENTRICITY   = .00012679
INCLINATION    = 97.8843
RA_OF_ASC_NODE = 162.9090
ARG_OF_PERICENTER = 87.6632
MEAN_ANOMALY   = 272.4727

EPHEMERIS_TYPE = 0
CLASSIFICATION_TYPE = U
NORAD_CAT_ID   = 46265
ELEMENT_SET_NO = 999
REV_AT_EPOCH   = 28476
BSTAR          = .12850095E-3
MEAN_MOTION_DOT = .971E-5
MEAN_MOTION_DDOT = 0

CCSDS_OMM_VERS = 2.0
CREATION_DATE  = 
ORIGINATOR     = 

OBJECT_NAME    = CSS (TIANHE)
OBJECT_ID      = 2021-035A
CENTER_NAME    = EARTH
REF_FRAME      = TEME
TIME_SYSTEM    = UTC
MEAN_ELEMENT_THEORY = SGP/SGP4

EPOCH          = 2025-12-05T06:48:03.993120
MEAN_MOTION    = 15.58716050
ECCENTRICITY   = .00098342
INCLINATION    = 41.4682
RA_OF_ASC_NODE = 61.9587
ARG_OF_PERICENTER = 333.0075
MEAN_ANOMALY   = 27.0251

EPHEMERIS_TYPE = 0
CLASSIFICATION_TYPE = U
NORAD_CAT_ID   = 48274
ELEMENT_SET_NO = 999
REV_AT_EPOCH   = 26286
BSTAR          = .43162186E-3
MEAN_MOTION_DOT = .34071E-3
MEAN_MOTION_DDOT = 0

CCSDS_OMM_VERS = 2.0
CREATION_DATE  = 
ORIGINATOR     = 

OBJECT_NAME    = COSMOS 2550
OBJECT_ID      = 2021-056A
CENTER_NAME    = EARTH
REF_FRAME      = TEME
TIME_SYSTEM    = UTC
MEAN_ELEMENT_THEORY = SGP/SGP4

EPOCH          = 2025-12-05T13:16:37.998048
MEAN_MOTION    = 15.33827034
ECCENTRICITY   = .0008394
INCLINATION    = 67.1428
RA_OF_ASC_NODE = 325.6713
ARG_OF_PERICENTER = 269.9188
MEAN_ANOMALY   = 90.1005

EPHEMERIS_TYPE = 0
CLASSIFICATION_TYPE = U
NORAD_CAT_ID   = 48865
ELEMENT_SET_NO = 999
REV_AT_EPOCH   = 24902
BSTAR          = -.5496E-7
MEAN_MOTION_DOT = -.194E-5
MEAN_MOTION_DDOT = 0

CCSDS_OMM_VERS = 2.0
CREATION_DATE  = 
ORIGINATOR     = 

OBJECT_NAME    = CZ-2C R/B
OBJECT_ID      = 2022-058K
CENTER_NAME    = EARTH
REF_FRAME      = TEME
TIME_SYSTEM    = UTC
MEAN_ELEMENT_THEORY = SGP/SGP4

EPOCH          = 2025-12-05T07:41:29.033952
MEAN_MOTION    = 15.47977537
ECCENTRICITY   = .00462178
INCLINATION    = 50.1910
RA_OF_ASC_NODE = 81.3709
ARG_OF_PERICENTER = 167.8364
MEAN_ANOMALY   = 192.3731

EPHEMERIS_TYPE = 0
CLASSIFICATION_TYPE = U
NORAD_CAT_ID   = 52794
ELEMENT_SET_NO = 999
REV_AT_EPOCH   = 19548
BSTAR          = .7753762E-3
MEAN_MOTION_DOT = .42815E-3
MEAN_MOTION_DDOT = 0

